{
  "norad_id": 62039,
  "name": "STARLINK-32480",
  "history": [
    {
      "epoch": "2026-03-28T20:24:04.860864Z",
      "apogee_km": 483.17434018932363,
      "perigee_km": 482.97166004592054,
      "latitude_deg": 3.9488457002232144e-05,
      "longitude_deg": 16.027798928518557,
      "height_km": 482.7468731526134,
      "semi_major_axis_km": 6861.210000117622,
      "eccentricity": 1.477e-05,
      "inclination_deg": 42.9962,
      "raan_deg": 148.3126,
      "arg_perigee_deg": 356.322,
      "mean_anomaly_deg": 3.7631,
      "mean_motion_rev_day": 15.27572017
    },
    {
      "epoch": "2026-03-29T04:14:51.918720Z",
      "apogee_km": 483.5910007649072,
      "perigee_km": 482.51928255238,
      "latitude_deg": 1.445538274354117e-05,
      "longitude_deg": -103.83454254375374,
      "height_km": 483.29445290733645,
      "semi_major_axis_km": 6861.192141658643,
      "eccentricity": 7.81e-05,
      "inclination_deg": 43.0008,
      "raan_deg": 146.4686,
      "arg_perigee_deg": 210.1229,
      "mean_anomaly_deg": 149.9578,
      "mean_motion_rev_day": 15.27577981
    },
    {
      "epoch": "2026-03-30T03:47:11.522400Z",
      "apogee_km": 483.4484915388048,
      "perigee_km": 482.23547045496343,
      "latitude_deg": 4.975241776620383e-05,
      "longitude_deg": -103.4245895935095,
      "height_km": 482.49834050829475,
      "semi_major_axis_km": 6860.978980996883,
      "eccentricity": 8.84e-05,
      "inclination_deg": 42.9989,
      "raan_deg": 140.9269,
      "arg_perigee_deg": 281.3886,
      "mean_anomaly_deg": 78.6867,
      "mean_motion_rev_day": 15.27649171
    },
    {
      "epoch": "2026-03-30T13:12:07.967808Z",
      "apogee_km": 484.702001813268,
      "perigee_km": 481.3699417712469,
      "latitude_deg": 3.159567478068486e-05,
      "longitude_deg": 112.73741408305087,
      "height_km": 482.75920792965024,
      "semi_major_axis_km": 6861.172971792257,
      "eccentricity": 0.00024282,
      "inclination_deg": 43.0034,
      "raan_deg": 138.7108,
      "arg_perigee_deg": 271.879,
      "mean_anomaly_deg": 88.1784,
      "mean_motion_rev_day": 15.27584383
    },
    {
      "epoch": "2026-03-31T12:44:29.468832Z",
      "apogee_km": 483.88165391173607,
      "perigee_km": 482.1090117622243,
      "latitude_deg": -3.917748925472359e-05,
      "longitude_deg": 113.14422733689807,
      "height_km": 482.7696062577542,
      "semi_major_axis_km": 6861.13233283698,
      "eccentricity": 0.00012918,
      "inclination_deg": 42.9999,
      "raan_deg": 133.174,
      "arg_perigee_deg": 270.1506,
      "mean_anomaly_deg": 89.9197,
      "mean_motion_rev_day": 15.27597955
    },
    {
      "epoch": "2026-04-02T11:49:10.603776Z",
      "apogee_km": 484.7430195891584,
      "perigee_km": 480.93421758425666,
      "latitude_deg": 2.3985482325882035e-05,
      "longitude_deg": 113.95967275153653,
      "height_km": 482.65841227878974,
      "semi_major_axis_km": 6860.975618586707,
      "eccentricity": 0.00027757,
      "inclination_deg": 43.001,
      "raan_deg": 122.0942,
      "arg_perigee_deg": 268.7367,
      "mean_anomaly_deg": 91.3167,
      "mean_motion_rev_day": 15.27650294
    },
    {
      "epoch": "2026-04-03T11:21:30.601440Z",
      "apogee_km": 484.4434374505472,
      "perigee_km": 481.34623046006163,
      "latitude_deg": 4.338398741640489e-05,
      "longitude_deg": 114.37006237297494,
      "height_km": 483.10560380178805,
      "semi_major_axis_km": 6861.031833955304,
      "eccentricity": 0.00022571,
      "inclination_deg": 42.9976,
      "raan_deg": 116.5546,
      "arg_perigee_deg": 253.732,
      "mean_anomaly_deg": 106.3284,
      "mean_motion_rev_day": 15.27631519
    },
    {
      "epoch": "2026-04-04T10:53:52.790208Z",
      "apogee_km": 484.1962802547732,
      "perigee_km": 481.9581521774435,
      "latitude_deg": 4.606606912936768e-05,
      "longitude_deg": 114.77287877149537,
      "height_km": 483.1253196549267,
      "semi_major_axis_km": 6861.214216216108,
      "eccentricity": 0.0001631,
      "inclination_deg": 43.0007,
      "raan_deg": 111.0166,
      "arg_perigee_deg": 255.9741,
      "mean_anomaly_deg": 104.093,
      "mean_motion_rev_day": 15.27570609
    },
    {
      "epoch": "2026-04-05T10:26:12.087168Z",
      "apogee_km": 484.10955160438607,
      "perigee_km": 481.6335508384209,
      "latitude_deg": -3.776126202284318e-05,
      "longitude_deg": 115.18648428332742,
      "height_km": 482.84614878639934,
      "semi_major_axis_km": 6861.008551221403,
      "eccentricity": 0.00018044,
      "inclination_deg": 43.001,
      "raan_deg": 105.4774,
      "arg_perigee_deg": 260.8199,
      "mean_anomaly_deg": 99.2448,
      "mean_motion_rev_day": 15.27639295
    },
    {
      "epoch": "2026-04-06T00:33:37.393344Z",
      "apogee_km": 483.56334664103815,
      "perigee_km": 482.47804871641983,
      "latitude_deg": 5.5551169753618874e-05,
      "longitude_deg": -100.57239926216855,
      "height_km": 483.241755992408,
      "semi_major_axis_km": 6861.157697678728,
      "eccentricity": 7.909e-05,
      "inclination_deg": 42.998,
      "raan_deg": 102.1539,
      "arg_perigee_deg": 145.3523,
      "mean_anomaly_deg": 214.7381,
      "mean_motion_rev_day": 15.27589484
    },
    {
      "epoch": "2026-04-07T07:56:46.178592Z",
      "apogee_km": 484.01021789105835,
      "perigee_km": 482.0409270095133,
      "latitude_deg": 5.449828058916004e-05,
      "longitude_deg": 139.96712308943827,
      "height_km": 482.78279146291857,
      "semi_major_axis_km": 6861.162572450286,
      "eccentricity": 0.00014351,
      "inclination_deg": 43.0018,
      "raan_deg": 94.769,
      "arg_perigee_deg": 271.1469,
      "mean_anomaly_deg": 88.9219,
      "mean_motion_rev_day": 15.27587856
    },
    {
      "epoch": "2026-04-08T09:03:16.309440Z",
      "apogee_km": 483.98029515725466,
      "perigee_km": 482.04366724581996,
      "latitude_deg": -3.4289108351411654e-05,
      "longitude_deg": 116.40241598109293,
      "height_km": 482.7054534261224,
      "semi_major_axis_km": 6861.148981201537,
      "eccentricity": 0.00014113,
      "inclination_deg": 43.0023,
      "raan_deg": 88.8611,
      "arg_perigee_deg": 274.9472,
      "mean_anomaly_deg": 85.1218,
      "mean_motion_rev_day": 15.27592395
    },
    {
      "epoch": "2026-04-09T07:01:27.224544Z",
      "apogee_km": 483.9989670994455,
      "perigee_km": 481.97315190489735,
      "latitude_deg": -2.7460305598485477e-05,
      "longitude_deg": 140.78597742646255,
      "height_km": 482.6560463773079,
      "semi_major_axis_km": 6861.123059502171,
      "eccentricity": 0.00014763,
      "inclination_deg": 43.0026,
      "raan_deg": 83.6924,
      "arg_perigee_deg": 276.0682,
      "mean_anomaly_deg": 84.0001,
      "mean_motion_rev_day": 15.27601052
    },
    {
      "epoch": "2026-04-10T04:59:38.726304Z",
      "apogee_km": 484.05356093384853,
      "perigee_km": 481.9845107196843,
      "latitude_deg": -4.956948894473428e-05,
      "longitude_deg": 165.16495714053548,
      "height_km": 482.6911233931899,
      "semi_major_axis_km": 6861.156035826766,
      "eccentricity": 0.00015078,
      "inclination_deg": 43.0021,
      "raan_deg": 78.5216,
      "arg_perigee_deg": 275.8225,
      "mean_anomaly_deg": 84.2454,
      "mean_motion_rev_day": 15.27590039
    },
    {
      "epoch": "2026-04-11T06:06:10.414080Z",
      "apogee_km": 484.1688529156363,
      "perigee_km": 482.12693453126394,
      "latitude_deg": -6.321595960866216e-05,
      "longitude_deg": 141.59412603949738,
      "height_km": 482.8235827856199,
      "semi_major_axis_km": 6861.284893723449,
      "eccentricity": 0.0001488,
      "inclination_deg": 43.0018,
      "raan_deg": 72.614,
      "arg_perigee_deg": 275.6945,
      "mean_anomaly_deg": 84.3736,
      "mean_motion_rev_day": 15.27547006
    },
    {
      "epoch": "2026-04-13T06:45:01.715040Z",
      "apogee_km": 484.04099452637547,
      "perigee_km": 481.9472517528384,
      "latitude_deg": -1.62359823816037e-05,
      "longitude_deg": 118.43483536693334,
      "height_km": 482.6963441136341,
      "semi_major_axis_km": 6861.131123139607,
      "eccentricity": 0.00015258,
      "inclination_deg": 43.0028,
      "raan_deg": 61.1663,
      "arg_perigee_deg": 274.103,
      "mean_anomaly_deg": 85.9647,
      "mean_motion_rev_day": 15.27598359
    },
    {
      "epoch": "2026-04-14T20:24:45.367776Z",
      "apogee_km": 483.84228108206025,
      "perigee_km": 482.1242565667462,
      "latitude_deg": 3.3799686363820705e-05,
      "longitude_deg": -96.9059245143282,
      "height_km": 482.60428000107544,
      "semi_major_axis_km": 6861.120268824403,
      "eccentricity": 0.0001252,
      "inclination_deg": 43.0016,
      "raan_deg": 52.3041,
      "arg_perigee_deg": 280.4458,
      "mean_anomaly_deg": 79.6253,
      "mean_motion_rev_day": 15.27601984
    }
  ]
}